[{"OBJECT_NAME":"JILIN-1 10","OBJECT_ID":"2019-005E","EPOCH":"2026-03-09T22:11:06.915840","MEAN_MOTION":15.2445874,"ECCENTRICITY":0.00069203,"INCLINATION":97.4731,"RA_OF_ASC_NODE":167.8564,"ARG_OF_PERICENTER":265.2171,"MEAN_ANOMALY":94.8276,"EPHEMERIS_TYPE":0,"CLASSIFICATION_TYPE":"U","NORAD_CAT_ID":43946,"ELEMENT_SET_NO":999,"REV_AT_EPOCH":39418,"BSTAR":0.00035023991,"MEAN_MOTION_DOT":8.535e-5,"MEAN_MOTION_DDOT":0},{"OBJECT_NAME":"FENGYUN 1C DEB","OBJECT_ID":"1999-025CMK","EPOCH":"2026-03-07T03:30:19.798272","MEAN_MOTION":15.19499855,"ECCENTRICITY":0.00275543,"INCLINATION":98.8642,"RA_OF_ASC_NODE":134.1649,"ARG_OF_PERICENTER":306.5016,"MEAN_ANOMALY":53.3676,"EPHEMERIS_TYPE":0,"CLASSIFICATION_TYPE":"U","NORAD_CAT_ID":31934,"ELEMENT_SET_NO":999,"REV_AT_EPOCH":62119,"BSTAR":0.0037988961,"MEAN_MOTION_DOT":0.0008222,"MEAN_MOTION_DDOT":0}]
